{
  "type": "FeatureCollection",
  "features": [
    {
      "type": "Feature",
      "properties": {
        "norad_id": 34752,
        "name": "COSMOS 2251 DEB",
        "group": "cosmos-2251-debris",
        "lat": -61.20331665580371,
        "lon": -41.34105785115513,
        "alt_km": 606.5957890965556,
        "timestamp": "2025-12-17T21:39:46.084622+00:00",
        "meta_object_name": "COSMOS 2251 DEB",
        "meta_object_id": "1993-036ZW",
        "meta_epoch": "2025-12-17T09:09:08.925984",
        "meta_mean_motion": 15.00033267,
        "meta_eccentricity": 0.00475817,
        "meta_inclination": 74.0129,
        "meta_ra_of_asc_node": 351.1573,
        "meta_arg_of_pericenter": 117.9968,
        "meta_mean_anomaly": 242.6045,
        "meta_ephemeris_type": 0,
        "meta_classification_type": "U",
        "meta_norad_cat_id": 34752,
        "meta_element_set_no": 999,
        "meta_rev_at_epoch": 89919,
        "meta_bstar": 0.00068132455,
        "meta_mean_motion_dot": 8.656e-05,
        "meta_mean_motion_ddot": 0,
        "tle_line1": "1 34752U 93036ZW  25351.38135331  .00008656  00000+0  68132-3 0  9992",
        "tle_line2": "2 34752  74.0129 351.1573 0047581 117.9968 242.6045 15.00033267899193"
      },
      "geometry": {
        "type": "Point",
        "coordinates": [
          -41.34105785115513,
          -61.20331665580371
        ]
      }
    },
    {
      "type": "Feature",
      "properties": {
        "norad_id": 34754,
        "name": "COSMOS 2251 DEB",
        "group": "cosmos-2251-debris",
        "lat": -58.81702316770349,
        "lon": 66.29302586969038,
        "alt_km": 763.7073883040202,
        "timestamp": "2025-12-17T21:39:46.084631+00:00",
        "meta_object_name": "COSMOS 2251 DEB",
        "meta_object_id": "1993-036ZY",
        "meta_epoch": "2025-12-17T10:50:05.239392",
        "meta_mean_motion": 14.40488373,
        "meta_eccentricity": 0.00297582,
        "meta_inclination": 74.0298,
        "meta_ra_of_asc_node": 218.8872,
        "meta_arg_of_pericenter": 334.0809,
        "meta_mean_anomaly": 90.3642,
        "meta_ephemeris_type": 0,
        "meta_classification_type": "U",
        "meta_norad_cat_id": 34754,
        "meta_element_set_no": 999,
        "meta_rev_at_epoch": 88201,
        "meta_bstar": 0.00017734263,
        "meta_mean_motion_dot": 5.4e-06,
        "meta_mean_motion_ddot": 0,
        "tle_line1": "1 34754U 93036ZY  25351.45144953  .00000540  00000+0  17734-3 0  9998",
        "tle_line2": "2 34754  74.0298 218.8872 0029758 334.0809  90.3642 14.40488373882014"
      },
      "geometry": {
        "type": "Point",
        "coordinates": [
          66.29302586969038,
          -58.81702316770349
        ]
      }
    },
    {
      "type": "Feature",
      "properties": {
        "norad_id": 34755,
        "name": "COSMOS 2251 DEB",
        "group": "cosmos-2251-debris",
        "lat": 54.84505487842736,
        "lon": 77.55905968927684,
        "alt_km": 1368.5868322355882,
        "timestamp": "2025-12-17T21:39:46.084640+00:00",
        "meta_object_name": "COSMOS 2251 DEB",
        "meta_object_id": "1993-036ZZ",
        "meta_epoch": "2025-12-17T05:50:06.069984",
        "meta_mean_motion": 13.50569003,
        "meta_eccentricity": 0.04081843,
        "meta_inclination": 73.926,
        "meta_ra_of_asc_node": 282.7855,
        "meta_arg_of_pericenter": 301.8273,
        "meta_mean_anomaly": 214.5982,
        "meta_ephemeris_type": 0,
        "meta_classification_type": "U",
        "meta_norad_cat_id": 34755,
        "meta_element_set_no": 999,
        "meta_rev_at_epoch": 82584,
        "meta_bstar": 0.00078980416,
        "meta_mean_motion_dot": 8.28e-06,
        "meta_mean_motion_ddot": 0,
        "tle_line1": "1 34755U 93036ZZ  25351.24312581  .00000828  00000+0  78980-3 0  9999",
        "tle_line2": "2 34755  73.9260 282.7855 0408184 301.8273 214.5982 13.50569003825849"
      },
      "geometry": {
        "type": "Point",
        "coordinates": [
          77.55905968927684,
          54.84505487842736
        ]
      }
    },
    {
      "type": "Feature",
      "properties": {
        "norad_id": 34756,
        "name": "COSMOS 2251 DEB",
        "group": "cosmos-2251-debris",
        "lat": -21.18281576777898,
        "lon": 89.49756265347942,
        "alt_km": 761.1807803650299,
        "timestamp": "2025-12-17T21:39:46.084650+00:00",
        "meta_object_name": "COSMOS 2251 DEB",
        "meta_object_id": "1993-036AAA",
        "meta_epoch": "2025-12-16T08:53:18.201984",
        "meta_mean_motion": 13.67251835,
        "meta_eccentricity": 0.03452801,
        "meta_inclination": 74.003,
        "meta_ra_of_asc_node": 98.3991,
        "meta_arg_of_pericenter": 333.4281,
        "meta_mean_anomaly": 24.9484,
        "meta_ephemeris_type": 0,
        "meta_classification_type": "U",
        "meta_norad_cat_id": 34756,
        "meta_element_set_no": 999,
        "meta_rev_at_epoch": 83471,
        "meta_bstar": 0.00093292845,
        "meta_mean_motion_dot": 1.159e-05,
        "meta_mean_motion_ddot": 0,
        "tle_line1": "1 34756U 93036AAA 25350.37034956  .00001159  00000+0  93293-3 0  9992",
        "tle_line2": "2 34756  74.0030  98.3991 0345280 333.4281  24.9484 13.67251835834711"
      },
      "geometry": {
        "type": "Point",
        "coordinates": [
          89.49756265347942,
          -21.18281576777898
        ]
      }
    },
    {
      "type": "Feature",
      "properties": {
        "norad_id": 34758,
        "name": "COSMOS 2251 DEB",
        "group": "cosmos-2251-debris",
        "lat": -72.80916217687569,
        "lon": -135.86139307916503,
        "alt_km": 1251.8250991399455,
        "timestamp": "2025-12-17T21:39:46.084659+00:00",
        "meta_object_name": "COSMOS 2251 DEB",
        "meta_object_id": "1993-036AAC",
        "meta_epoch": "2025-12-17T06:09:51.620544",
        "meta_mean_motion": 13.58084731,
        "meta_eccentricity": 0.03816404,
        "meta_inclination": 74.1075,
        "meta_ra_of_asc_node": 292.2273,
        "meta_arg_of_pericenter": 54.8808,
        "meta_mean_anomaly": 308.7451,
        "meta_ephemeris_type": 0,
        "meta_classification_type": "U",
        "meta_norad_cat_id": 34758,
        "meta_element_set_no": 999,
        "meta_rev_at_epoch": 82971,
        "meta_bstar": 0.001447828,
        "meta_mean_motion_dot": 1.667e-05,
        "meta_mean_motion_ddot": 0,
        "tle_line1": "1 34758U 93036AAC 25351.25684746  .00001667  00000+0  14478-2 0  9991",
        "tle_line2": "2 34758  74.1075 292.2273 0381640  54.8808 308.7451 13.58084731829710"
      },
      "geometry": {
        "type": "Point",
        "coordinates": [
          -135.86139307916503,
          -72.80916217687569
        ]
      }
    },
    {
      "type": "Feature",
      "properties": {
        "norad_id": 34760,
        "name": "COSMOS 2251 DEB",
        "group": "cosmos-2251-debris",
        "lat": -48.402951137840155,
        "lon": 131.92223231153596,
        "alt_km": 860.0713830989762,
        "timestamp": "2025-12-17T21:39:46.084668+00:00",
        "meta_object_name": "COSMOS 2251 DEB",
        "meta_object_id": "1993-036AAE",
        "meta_epoch": "2025-12-15T15:17:34.568160",
        "meta_mean_motion": 14.19579445,
        "meta_eccentricity": 0.00969523,
        "meta_inclination": 74.0638,
        "meta_ra_of_asc_node": 297.1884,
        "meta_arg_of_pericenter": 348.6722,
        "meta_mean_anomaly": 190.5489,
        "meta_ephemeris_type": 0,
        "meta_classification_type": "U",
        "meta_norad_cat_id": 34760,
        "meta_element_set_no": 999,
        "meta_rev_at_epoch": 86729,
        "meta_bstar": 0.00062937679,
        "meta_mean_motion_dot": 1.367e-05,
        "meta_mean_motion_ddot": 0,
        "tle_line1": "1 34760U 93036AAE 25349.63720565  .00001367  00000+0  62938-3 0  9995",
        "tle_line2": "2 34760  74.0638 297.1884 0096952 348.6722 190.5489 14.19579445867299"
      },
      "geometry": {
        "type": "Point",
        "coordinates": [
          131.92223231153596,
          -48.402951137840155
        ]
      }
    },
    {
      "type": "Feature",
      "properties": {
        "norad_id": 34761,
        "name": "COSMOS 2251 DEB",
        "group": "cosmos-2251-debris",
        "lat": 42.216332658947344,
        "lon": 158.21781697774253,
        "alt_km": 769.8388346269321,
        "timestamp": "2025-12-17T21:39:46.084677+00:00",
        "meta_object_name": "COSMOS 2251 DEB",
        "meta_object_id": "1993-036AAF",
        "meta_epoch": "2025-12-17T09:21:00.727200",
        "meta_mean_motion": 14.3806575,
        "meta_eccentricity": 0.00366444,
        "meta_inclination": 74.0292,
        "meta_ra_of_asc_node": 354.2223,
        "meta_arg_of_pericenter": 26.9258,
        "meta_mean_anomaly": 333.3787,
        "meta_ephemeris_type": 0,
        "meta_classification_type": "U",
        "meta_norad_cat_id": 34761,
        "meta_element_set_no": 999,
        "meta_rev_at_epoch": 87716,
        "meta_bstar": 0.00049544142,
        "meta_mean_motion_dot": 1.486e-05,
        "meta_mean_motion_ddot": 0,
        "tle_line1": "1 34761U 93036AAF 25351.38959175  .00001486  00000+0  49544-3 0  9992",
        "tle_line2": "2 34761  74.0292 354.2223 0036644  26.9258 333.3787 14.38065750877165"
      },
      "geometry": {
        "type": "Point",
        "coordinates": [
          158.21781697774253,
          42.216332658947344
        ]
      }
    }
  ]
}